[{"OBJECT_NAME":"STARLINK-36277","OBJECT_ID":"2026-057M","EPOCH":"2026-04-15T14:42:40.453344","MEAN_MOTION":15.7521047,"ECCENTRICITY":0.0001623,"INCLINATION":97.2846,"RA_OF_ASC_NODE":229.8338,"ARG_OF_PERICENTER":82.6278,"MEAN_ANOMALY":277.5172,"EPHEMERIS_TYPE":0,"CLASSIFICATION_TYPE":"U","NORAD_CAT_ID":68305,"ELEMENT_SET_NO":999,"REV_AT_EPOCH":409,"BSTAR":0.00080235,"MEAN_MOTION_DOT":0.0012137,"MEAN_MOTION_DDOT":0},{"OBJECT_NAME":"STARLINK-36307","OBJECT_ID":"2026-057N","EPOCH":"2026-04-15T07:54:52.495200","MEAN_MOTION":15.80833288,"ECCENTRICITY":9.903e-5,"INCLINATION":97.2847,"RA_OF_ASC_NODE":229.6105,"ARG_OF_PERICENTER":57.1906,"MEAN_ANOMALY":302.9457,"EPHEMERIS_TYPE":0,"CLASSIFICATION_TYPE":"U","NORAD_CAT_ID":68306,"ELEMENT_SET_NO":999,"REV_AT_EPOCH":405,"BSTAR":0.00046877652,"MEAN_MOTION_DOT":0.00090659,"MEAN_MOTION_DDOT":0},{"OBJECT_NAME":"STARLINK-36264","OBJECT_ID":"2026-057P","EPOCH":"2026-04-15T20:30:48.398976","MEAN_MOTION":15.75161109,"ECCENTRICITY":0.0001636,"INCLINATION":97.2851,"RA_OF_ASC_NODE":230.1201,"ARG_OF_PERICENTER":79.1667,"MEAN_ANOMALY":280.9783,"EPHEMERIS_TYPE":0,"CLASSIFICATION_TYPE":"U","NORAD_CAT_ID":68307,"ELEMENT_SET_NO":999,"REV_AT_EPOCH":413,"BSTAR":0.0010321,"MEAN_MOTION_DOT":0.00156471,"MEAN_MOTION_DDOT":0},{"OBJECT_NAME":"STARLINK-37138","OBJECT_ID":"2026-057Q","EPOCH":"2026-04-15T20:00:01.999008","MEAN_MOTION":15.75157419,"ECCENTRICITY":0.0001386,"INCLINATION":97.2858,"RA_OF_ASC_NODE":230.1012,"ARG_OF_PERICENTER":78.1442,"MEAN_ANOMALY":170.9,"EPHEMERIS_TYPE":0,"CLASSIFICATION_TYPE":"U","NORAD_CAT_ID":68308,"ELEMENT_SET_NO":999,"REV_AT_EPOCH":501,"BSTAR":0.00020362,"MEAN_MOTION_DOT":0.00030307,"MEAN_MOTION_DDOT":0},{"OBJECT_NAME":"STARLINK-37149","OBJECT_ID":"2026-057R","EPOCH":"2026-04-15T20:33:20.704032","MEAN_MOTION":15.75173383,"ECCENTRICITY":0.0001361,"INCLINATION":97.2861,"RA_OF_ASC_NODE":230.115,"ARG_OF_PERICENTER":84.0007,"MEAN_ANOMALY":276.1413,"EPHEMERIS_TYPE":0,"CLASSIFICATION_TYPE":"U","NORAD_CAT_ID":68309,"ELEMENT_SET_NO":999,"REV_AT_EPOCH":413,"BSTAR":0.0010934,"MEAN_MOTION_DOT":0.00166049,"MEAN_MOTION_DDOT":0},{"OBJECT_NAME":"STARLINK-37148","OBJECT_ID":"2026-057S","EPOCH":"2026-04-15T20:20:08.992320","MEAN_MOTION":15.751738,"ECCENTRICITY":0.0005271,"INCLINATION":97.2863,"RA_OF_ASC_NODE":230.1282,"ARG_OF_PERICENTER":71.7597,"MEAN_ANOMALY":288.4242,"EPHEMERIS_TYPE":0,"CLASSIFICATION_TYPE":"U","NORAD_CAT_ID":68310,"ELEMENT_SET_NO":999,"REV_AT_EPOCH":413,"BSTAR":0.00089915,"MEAN_MOTION_DOT":0.00136135,"MEAN_MOTION_DDOT":0},{"OBJECT_NAME":"STARLINK-37140","OBJECT_ID":"2026-057T","EPOCH":"2026-04-15T07:49:28.419168","MEAN_MOTION":15.80878947,"ECCENTRICITY":0.00015613,"INCLINATION":97.2856,"RA_OF_ASC_NODE":229.6145,"ARG_OF_PERICENTER":91.9992,"MEAN_ANOMALY":268.1455,"EPHEMERIS_TYPE":0,"CLASSIFICATION_TYPE":"U","NORAD_CAT_ID":68311,"ELEMENT_SET_NO":999,"REV_AT_EPOCH":405,"BSTAR":0.0005473137,"MEAN_MOTION_DOT":0.00106287,"MEAN_MOTION_DDOT":0},{"OBJECT_NAME":"STARLINK-36854","OBJECT_ID":"2026-057U","EPOCH":"2026-04-15T19:56:32.464320","MEAN_MOTION":15.8098102,"ECCENTRICITY":0.0001535,"INCLINATION":97.286,"RA_OF_ASC_NODE":230.1519,"ARG_OF_PERICENTER":42.7486,"MEAN_ANOMALY":317.3902,"EPHEMERIS_TYPE":0,"CLASSIFICATION_TYPE":"U","NORAD_CAT_ID":68312,"ELEMENT_SET_NO":999,"REV_AT_EPOCH":413,"BSTAR":0.0018963,"MEAN_MOTION_DOT":0.00382338,"MEAN_MOTION_DDOT":0},{"OBJECT_NAME":"STARLINK-36815","OBJECT_ID":"2026-057V","EPOCH":"2026-04-15T15:21:59.042880","MEAN_MOTION":15.80901948,"ECCENTRICITY":1.82e-5,"INCLINATION":97.2864,"RA_OF_ASC_NODE":229.9514,"ARG_OF_PERICENTER":102.2062,"MEAN_ANOMALY":257.9227,"EPHEMERIS_TYPE":0,"CLASSIFICATION_TYPE":"U","NORAD_CAT_ID":68313,"ELEMENT_SET_NO":999,"REV_AT_EPOCH":410,"BSTAR":0.0012665,"MEAN_MOTION_DOT":0.00250537,"MEAN_MOTION_DDOT":0},{"OBJECT_NAME":"STARLINK-37155","OBJECT_ID":"2026-057W","EPOCH":"2026-04-15T19:53:17.386944","MEAN_MOTION":15.80935063,"ECCENTRICITY":0.0001172,"INCLINATION":97.2866,"RA_OF_ASC_NODE":230.154,"ARG_OF_PERICENTER":41.7543,"MEAN_ANOMALY":318.3814,"EPHEMERIS_TYPE":0,"CLASSIFICATION_TYPE":"U","NORAD_CAT_ID":68314,"ELEMENT_SET_NO":999,"REV_AT_EPOCH":413,"BSTAR":0.0013539,"MEAN_MOTION_DOT":0.00268808,"MEAN_MOTION_DDOT":0},{"OBJECT_NAME":"STARLINK-37150","OBJECT_ID":"2026-057X","EPOCH":"2026-04-15T06:39:21.305088","MEAN_MOTION":15.7528109,"ECCENTRICITY":0.00024404,"INCLINATION":97.2829,"RA_OF_ASC_NODE":229.5249,"ARG_OF_PERICENTER":80.6876,"MEAN_ANOMALY":279.4665,"EPHEMERIS_TYPE":0,"CLASSIFICATION_TYPE":"U","NORAD_CAT_ID":68315,"ELEMENT_SET_NO":999,"REV_AT_EPOCH":404,"BSTAR":0.0013105583,"MEAN_MOTION_DOT":0.00200814,"MEAN_MOTION_DDOT":0},{"OBJECT_NAME":"STARLINK-37154","OBJECT_ID":"2026-057Y","EPOCH":"2026-04-15T14:00:01.999872","MEAN_MOTION":15.75208964,"ECCENTRICITY":0.00013303,"INCLINATION":97.286,"RA_OF_ASC_NODE":229.8692,"ARG_OF_PERICENTER":82.9473,"MEAN_ANOMALY":259.3771,"EPHEMERIS_TYPE":0,"CLASSIFICATION_TYPE":"U","NORAD_CAT_ID":68316,"ELEMENT_SET_NO":999,"REV_AT_EPOCH":509,"BSTAR":-0.00046134612,"MEAN_MOTION_DOT":-0.0006845,"MEAN_MOTION_DDOT":0},{"OBJECT_NAME":"STARLINK-37139","OBJECT_ID":"2026-057Z","EPOCH":"2026-04-15T13:47:36.261600","MEAN_MOTION":15.80875819,"ECCENTRICITY":7.924e-5,"INCLINATION":97.286,"RA_OF_ASC_NODE":229.8878,"ARG_OF_PERICENTER":93.6362,"MEAN_ANOMALY":266.4997,"EPHEMERIS_TYPE":0,"CLASSIFICATION_TYPE":"U","NORAD_CAT_ID":68317,"ELEMENT_SET_NO":999,"REV_AT_EPOCH":409,"BSTAR":0.0010788283,"MEAN_MOTION_DOT":0.00212188,"MEAN_MOTION_DDOT":0},{"OBJECT_NAME":"STARLINK-37113","OBJECT_ID":"2026-057AA","EPOCH":"2026-04-15T14:07:36.369696","MEAN_MOTION":15.7522758,"ECCENTRICITY":0.0002076,"INCLINATION":97.2862,"RA_OF_ASC_NODE":229.8664,"ARG_OF_PERICENTER":123.8585,"MEAN_ANOMALY":236.2878,"EPHEMERIS_TYPE":0,"CLASSIFICATION_TYPE":"U","NORAD_CAT_ID":68318,"ELEMENT_SET_NO":999,"REV_AT_EPOCH":409,"BSTAR":0.0009457514,"MEAN_MOTION_DOT":0.0014357,"MEAN_MOTION_DDOT":0},{"OBJECT_NAME":"PROGRESS-MS 33","OBJECT_ID":"2026-058A","EPOCH":"2026-04-15T19:29:30.242976","MEAN_MOTION":15.4892715,"ECCENTRICITY":0.0006597,"INCLINATION":51.6328,"RA_OF_ASC_NODE":248.7979,"ARG_OF_PERICENTER":316.8975,"MEAN_ANOMALY":43.1496,"EPHEMERIS_TYPE":0,"CLASSIFICATION_TYPE":"U","NORAD_CAT_ID":68319,"ELEMENT_SET_NO":999,"REV_AT_EPOCH":364,"BSTAR":0.00010644,"MEAN_MOTION_DOT":5.404e-5,"MEAN_MOTION_DDOT":0},{"OBJECT_NAME":"STARLINK-36987","OBJECT_ID":"2026-059A","EPOCH":"2026-04-15T20:00:01.999008","MEAN_MOTION":15.70188876,"ECCENTRICITY":0.0001182,"INCLINATION":53.1591,"RA_OF_ASC_NODE":176.8395,"ARG_OF_PERICENTER":55.5333,"MEAN_ANOMALY":69.6973,"EPHEMERIS_TYPE":0,"CLASSIFICATION_TYPE":"U","NORAD_CAT_ID":68321,"ELEMENT_SET_NO":999,"REV_AT_EPOCH":501,"BSTAR":-0.017854,"MEAN_MOTION_DOT":-0.01952634,"MEAN_MOTION_DDOT":0}]
