STARLINK-36277
1 68305U 26057M   26105.61296821  .00121370  00000+0  80235-3 0  9995
2 68305  97.2846 229.8338 0001623  82.6278 277.5172 15.75210470  4096
STARLINK-36307
1 68306U 26057N   26105.32977425  .00090659  00000+0  46878-3 0  9990
2 68306  97.2847 229.6105 0000990  57.1906 302.9457 15.80833288  4058
STARLINK-36264
1 68307U 26057P   26105.85472684  .00156471  00000+0  10321-2 0  9994
2 68307  97.2851 230.1201 0001636  79.1667 280.9783 15.75161109  4130
STARLINK-37138
1 68308U 26057Q   26105.83335647  .00030307  00000+0  20362-3 0  9996
2 68308  97.2858 230.1012 0001386  78.1442 170.9000 15.75157419  5017
STARLINK-37149
1 68309U 26057R   26105.85648963  .00166049  00000+0  10934-2 0  9993
2 68309  97.2861 230.1150 0001361  84.0007 276.1413 15.75173383  4138
STARLINK-37148
1 68310U 26057S   26105.84732630  .00136135  00000+0  89915-3 0  9998
2 68310  97.2863 230.1282 0005271  71.7597 288.4242 15.75173800  4139
STARLINK-37140
1 68311U 26057T   26105.32602337  .00106287  00000+0  54731-3 0  9995
2 68311  97.2856 229.6145 0001561  91.9992 268.1455 15.80878947  4056
STARLINK-36854
1 68312U 26057U   26105.83093130  .00382338  00000+0  18963-2 0  9996
2 68312  97.2860 230.1519 0001535  42.7486 317.3902 15.80981020  4137
STARLINK-36815
1 68313U 26057V   26105.64026670  .00250537  00000+0  12665-2 0  9999
2 68313  97.2864 229.9514 0000182 102.2062 257.9227 15.80901948  4109
STARLINK-37155
1 68314U 26057W   26105.82867346  .00268808  00000+0  13539-2 0  9994
2 68314  97.2866 230.1540 0001172  41.7543 318.3814 15.80935063  4138
STARLINK-37150
1 68315U 26057X   26105.27732992  .00200814  00000+0  13106-2 0  9995
2 68315  97.2829 229.5249 0002440  80.6876 279.4665 15.75281090  4045
STARLINK-37154
1 68316U 26057Y   26105.58335648 -.00068450  00000+0 -46135-3 0  9996
2 68316  97.2860 229.8692 0001330  82.9473 259.3771 15.75208964  5091
STARLINK-37139
1 68317U 26057Z   26105.57472525  .00212188  00000+0  10788-2 0  9993
2 68317  97.2860 229.8878 0000792  93.6362 266.4997 15.80875819  4098
STARLINK-37113
1 68318U 26057AA  26105.58861539  .00143570  00000+0  94575-3 0  9997
2 68318  97.2862 229.8664 0002076 123.8585 236.2878 15.75227580  4097
PROGRESS-MS 33
1 68319U 26058A   26105.81215559  .00005404  00000+0  10644-3 0  9998
2 68319  51.6328 248.7979 0006597 316.8975  43.1496 15.48927150  3648
STARLINK-36987
1 68321U 26059A   26105.83335647 -.01952634  00000+0 -17854-1 0  9992
2 68321  53.1591 176.8395 0001182  55.5333  69.6973 15.70188876  5018
